[{"OBJECT_NAME":"STARLINK-4472","OBJECT_ID":"2022-105P","EPOCH":"2026-03-09T14:59:47.243904","MEAN_MOTION":15.01262358,"ECCENTRICITY":6.18e-5,"INCLINATION":97.6032,"RA_OF_ASC_NODE":310.1441,"ARG_OF_PERICENTER":101.6515,"MEAN_ANOMALY":258.4778,"EPHEMERIS_TYPE":0,"CLASSIFICATION_TYPE":"U","NORAD_CAT_ID":53661,"ELEMENT_SET_NO":999,"REV_AT_EPOCH":19322,"BSTAR":4.5629e-5,"MEAN_MOTION_DOT":5.28e-6,"MEAN_MOTION_DDOT":0},{"OBJECT_NAME":"PEGASUS DEB","OBJECT_ID":"1994-029ACF","EPOCH":"2026-03-09T05:20:07.680768","MEAN_MOTION":14.35928851,"ECCENTRICITY":0.02972475,"INCLINATION":82.0143,"RA_OF_ASC_NODE":138.1597,"ARG_OF_PERICENTER":90.0358,"MEAN_ANOMALY":326.3453,"EPHEMERIS_TYPE":0,"CLASSIFICATION_TYPE":"U","NORAD_CAT_ID":24973,"ELEMENT_SET_NO":999,"REV_AT_EPOCH":53449,"BSTAR":0.00058141957,"MEAN_MOTION_DOT":2.825e-5,"MEAN_MOTION_DDOT":0}]
